STARLINK-5925           
1 55945U 23037AH  26075.83335647  .00015954  00000+0  13421-2 0  9998
2 55945  69.9992 266.3621 0002885 272.9093  36.7004 14.98323374  5790
STARLINK-5857           
1 55946U 23037AJ  26075.83335647  .00015405  00000+0  12962-2 0  9999
2 55946  69.9995 266.3599 0002595 275.7652  34.7413 14.98325107  5796
STARLINK-5900           
1 55948U 23037AL  26075.85485382 -.00000565  00000+0 -39582-4 0  9997
2 55948  69.9988 246.5018 0002954 267.3698  92.7123 14.98329754165546
STARLINK-5911           
1 55950U 23037AN  26075.85067677 -.00000173  00000+0 -67097-5 0  9991
2 55950  69.9986 246.4869 0002818 268.6708  91.4129 14.98330963165541
STARLINK-5884           
1 55957U 23037AV  26075.83335647  .00034175  00000+0  28588-2 0  9997
2 55957  69.9997 246.5047 0002691 274.3305  14.8772 14.98318594  5794
STARLINK-5938           
1 55960U 23037AY  26075.84666397  .00000269  00000+0  30308-4 0  9993
2 55960  69.9980 246.4539 0002918 269.4737  90.6087 14.98331359165546
STARLINK-5906           
1 55962U 23037BA  26075.85902565 -.00000126  00000+0 -27395-5 0  9993
2 55962  69.9987 246.5103 0002889 267.7777  92.3051 14.98332646165545
STARLINK-30107          
1 56287U 23056B   26075.58864520 -.00000179  00000+0  30705-5 0  9999
2 56287  43.0081 152.1882 0004560 254.7373 105.2975 15.27571010161353
STARLINK-30103          
1 56290U 23056E   26075.63036058 -.00005982  00000+0 -21362-3 0  9991
2 56290  43.0029 169.5348 0001554 290.7861  69.2824 15.26720594161107
STARLINK-30098          
1 56292U 23056G   26075.56755335  .00002801  00000+0  11413-3 0  9992
2 56292  43.0079 169.9117 0001856 319.4274  40.6439 15.26728537161092
STARLINK-30086          
1 56297U 23056M   26075.63808500  .00002937  00000+0  11902-3 0  9991
2 56297  42.9986 169.5087 0000344 288.0349  72.0464 15.26763367161108
STARLINK-30109          
1 56298U 23056N   26075.63170584  .00000866  00000+0  41959-4 0  9991
2 56298  43.0016 169.4705 0000795 301.5153  58.5621 15.26729290161162
STARLINK-30108          
1 56299U 23056P   26075.83335647  .00028715  00000+0  14150-2 0  9991
2 56299  43.0005 156.7630 0001176 299.6482 210.4580 15.17433332  5814
