
    {
      "objectName": "STARLINK-5925",
      "objectId": "2023-037AH",
      "noradId": 55945,
      "epochUtc": "2026-03-16T20:00:01.999008Z",
      "meanMotionRevPerDay": 14.98323374,
      "eccentricity": 0.0002885,
      "inclinationDeg": 69.9992,
      "raanDeg": 266.3621,
      "argPerigeeDeg": 272.9093,
      "meanAnomalyDeg": 36.7004,
      "bstar": 0.0013421,
      "meanMotionDot": 0.00015954,
      "meanMotionDdot": 0,
      "elementSetNo": 999,
      "revAtEpoch": 579
    },
    {
      "objectName": "STARLINK-5857",
      "objectId": "2023-037AJ",
      "noradId": 55946,
      "epochUtc": "2026-03-16T20:00:01.999008Z",
      "meanMotionRevPerDay": 14.98325107,
      "eccentricity": 0.0002595,
      "inclinationDeg": 69.9995,
      "raanDeg": 266.3599,
      "argPerigeeDeg": 275.7652,
      "meanAnomalyDeg": 34.7413,
      "bstar": 0.0012962,
      "meanMotionDot": 0.00015405,
      "meanMotionDdot": 0,
      "elementSetNo": 999,
      "revAtEpoch": 579
    },
    {
      "objectName": "STARLINK-5900",
      "objectId": "2023-037AL",
      "noradId": 55948,
      "epochUtc": "2026-03-16T20:30:59.370048Z",
      "meanMotionRevPerDay": 14.98329754,
      "eccentricity": 0.0002954,
      "inclinationDeg": 69.9988,
      "raanDeg": 246.5018,
      "argPerigeeDeg": 267.3698,
      "meanAnomalyDeg": 92.7123,
      "bstar": -0.000039582,
      "meanMotionDot": -0.00000565,
      "meanMotionDdot": 0,
      "elementSetNo": 999,
      "revAtEpoch": 16554
    },
    {
      "objectName": "STARLINK-5911",
      "objectId": "2023-037AN",
      "noradId": 55950,
      "epochUtc": "2026-03-16T20:24:58.472928Z",
      "meanMotionRevPerDay": 14.98330963,
      "eccentricity": 0.0002818,
      "inclinationDeg": 69.9986,
      "raanDeg": 246.4869,
      "argPerigeeDeg": 268.6708,
      "meanAnomalyDeg": 91.4129,
      "bstar": -0.0000067097,
      "meanMotionDot": -0.00000173,
      "meanMotionDdot": 0,
      "elementSetNo": 999,
      "revAtEpoch": 16554
    },
    {
      "objectName": "STARLINK-5884",
      "objectId": "2023-037AV",
      "noradId": 55957,
      "epochUtc": "2026-03-16T20:00:01.999008Z",
      "meanMotionRevPerDay": 14.98318594,
      "eccentricity": 0.0002691,
      "inclinationDeg": 69.9997,
      "raanDeg": 246.5047,
      "argPerigeeDeg": 274.3305,
      "meanAnomalyDeg": 14.8772,
      "bstar": 0.0028588,
      "meanMotionDot": 0.00034175,
      "meanMotionDdot": 0,
      "elementSetNo": 999,
      "revAtEpoch": 579
    },
    {
      "objectName": "STARLINK-5938",
      "objectId": "2023-037AY",
      "noradId": 55960,
      "epochUtc": "2026-03-16T20:19:11.767008Z",
      "meanMotionRevPerDay": 14.98331359,
      "eccentricity": 0.0002918,
      "inclinationDeg": 69.998,
      "raanDeg": 246.4539,
      "argPerigeeDeg": 269.4737,
      "meanAnomalyDeg": 90.6087,
      "bstar": 0.000030308,
      "meanMotionDot": 0.00000269,
      "meanMotionDdot": 0,
      "elementSetNo": 999,
      "revAtEpoch": 16554
    },
    {
      "objectName": "STARLINK-5906",
      "objectId": "2023-037BA",
      "noradId": 55962,
      "epochUtc": "2026-03-16T20:36:59.816160Z",
      "meanMotionRevPerDay": 14.98332646,
      "eccentricity": 0.0002889,
      "inclinationDeg": 69.9987,
      "raanDeg": 246.5103,
      "argPerigeeDeg": 267.7777,
      "meanAnomalyDeg": 92.3051,
      "bstar": -0.0000027395,
      "meanMotionDot": -0.00000126,
      "meanMotionDdot": 0,
      "elementSetNo": 999,
      "revAtEpoch": 16554
    },
    {
      "objectName": "STARLINK-30107",
      "objectId": "2023-056B",
      "noradId": 56287,
      "epochUtc": "2026-03-16T14:07:38.945280Z",
      "meanMotionRevPerDay": 15.2757101,
      "eccentricity": 0.000456,
      "inclinationDeg": 43.0081,
      "raanDeg": 152.1882,
      "argPerigeeDeg": 254.7373,
      "meanAnomalyDeg": 105.2975,
      "bstar": 0.0000030705,
      "meanMotionDot": -0.00000179,
      "meanMotionDdot": 0,
      "elementSetNo": 999,
      "revAtEpoch": 16135
    },
    {
      "objectName": "STARLINK-30103",
      "objectId": "2023-056E",
      "noradId": 56290,
      "epochUtc": "2026-03-16T15:07:43.154112Z",
      "meanMotionRevPerDay": 15.26720594,
      "eccentricity": 0.0001554,
      "inclinationDeg": 43.0029,
      "raanDeg": 169.5348,
      "argPerigeeDeg": 290.7861,
      "meanAnomalyDeg": 69.2824,
      "bstar": -0.00021362,
      "meanMotionDot": -0.00005982,
      "meanMotionDdot": 0,
      "elementSetNo": 999,
      "revAtEpoch": 16110
    },
    {
      "objectName": "STARLINK-30098",
      "objectId": "2023-056G",
      "noradId": 56292,
      "epochUtc": "2026-03-16T13:37:16.609440Z",
      "meanMotionRevPerDay": 15.26728537,
      "eccentricity": 0.0001856,
      "inclinationDeg": 43.0079,
      "raanDeg": 169.9117,
      "argPerigeeDeg": 319.4274,
      "meanAnomalyDeg": 40.6439,
      "bstar": 0.00011413,
      "meanMotionDot": 0.00002801,
      "meanMotionDdot": 0,
      "elementSetNo": 999,
      "revAtEpoch": 16109
    },
    {
      "objectName": "STARLINK-30086",
      "objectId": "2023-056M",
      "noradId": 56297,
      "epochUtc": "2026-03-16T15:18:50.544000Z",
      "meanMotionRevPerDay": 15.26763367,
      "eccentricity": 0.0000344,
      "inclinationDeg": 42.9986,
      "raanDeg": 169.5087,
      "argPerigeeDeg": 288.0349,
      "meanAnomalyDeg": 72.0464,
      "bstar": 0.00011902,
      "meanMotionDot": 0.00002937,
      "meanMotionDdot": 0,
      "elementSetNo": 999,
      "revAtEpoch": 16110
    },
    {
      "objectName": "STARLINK-30109",
      "objectId": "2023-056N",
      "noradId": 56298,
      "epochUtc": "2026-03-16T15:09:39.384576Z",
      "meanMotionRevPerDay": 15.2672929,
      "eccentricity": 0.0000795,
      "inclinationDeg": 43.0016,
      "raanDeg": 169.4705,
      "argPerigeeDeg": 301.5153,
      "meanAnomalyDeg": 58.5621,
      "bstar": 0.000041959,
      "meanMotionDot": 0.00000866,
      "meanMotionDdot": 0,
      "elementSetNo": 999,
      "revAtEpoch": 16116
    },
    {
      "objectName": "STARLINK-30108",
      "objectId": "2023-056P",
      "noradId": 56299,
      "epochUtc": "2026-03-16T20:00:01.999008Z",
      "meanMotionRevPerDay": 15.17433332,
      "eccentricity": 0.0001176,
      "inclinationDeg": 43.0005,
      "raanDeg": 156.763,
      "argPerigeeDeg": 299.6482,
      "meanAnomalyDeg": 210.458,
      "bstar": 0.001415,
      "meanMotionDot": 0.00028715,
      "meanMotionDdot": 0,
      "elementSetNo": 999,
      "revAtEpoch": 581
    }